{"type": "FeatureCollection", "features": [ {"type": "Feature", "properties": {"norad_id": 44476, "name": "INTELSAT 39 (IS-39)", "group": "intelsat", "lat": -0.037965441237129534, "lon": -150.73449769244837, "alt_km": 35784.71690658819, "timestamp": "2025-12-05T04:52:14.989636+00:00", "meta": {"OBJECT_NAME": "INTELSAT 39 (IS-39)", "OBJECT_ID": "2019-049B", "EPOCH": "2025-12-04T14:01:17.914368", "MEAN_MOTION": 1.00272424, "ECCENTRICITY": 6.34e-05, "INCLINATION": 0.0165, "RA_OF_ASC_NODE": 325.9133, "ARG_OF_PERICENTER": 179.1355, "MEAN_ANOMALY": 200.879, "EPHEMERIS_TYPE": 0, "CLASSIFICATION_TYPE": "U", "NORAD_CAT_ID": 44476, "ELEMENT_SET_NO": 999, "REV_AT_EPOCH": 2317, "BSTAR": 0, "MEAN_MOTION_DOT": 4.8e-07, "MEAN_MOTION_DDOT": 0}, "tle": {"line1": "1 44476U 19049B   25338.58423512  .00000048  00000+0  00000+0 0  9999", "line2": "2 44476   0.0165 325.9133 0000634 179.1355 200.8790  1.00272424 23170"}}, "geometry": {"type": "Point", "coordinates": [-150.73449769244837, -0.037965441237129534]}}, {"type": "Feature", "properties": {"norad_id": 46114, "name": "GALAXY 30 (G-30)", "group": "intelsat", "lat": 0.034115625332214364, "lon": 22.332059174215225, "alt_km": 35793.70626668271, "timestamp": "2025-12-05T04:52:14.989647+00:00", "meta": {"OBJECT_NAME": "GALAXY 30 (G-30)", "OBJECT_ID": "2020-056C", "EPOCH": "2025-12-04T14:10:38.722944", "MEAN_MOTION": 1.00270006, "ECCENTRICITY": 0.0002489, "INCLINATION": 0.0158, "RA_OF_ASC_NODE": 328.6937, "ARG_OF_PERICENTER": 280.7734, "MEAN_ANOMALY": 271.8612, "EPHEMERIS_TYPE": 0, "CLASSIFICATION_TYPE": "U", "NORAD_CAT_ID": 46114, "ELEMENT_SET_NO": 999, "REV_AT_EPOCH": 1934, "BSTAR": 0, "MEAN_MOTION_DOT": 5.1e-07, "MEAN_MOTION_DDOT": 0}, "tle": {"line1": "1 46114U 20056C   25338.59072596  .00000051  00000+0  00000+0 0  9997", "line2": "2 46114   0.0158 328.6937 0002489 280.7734 271.8612  1.00270006 19344"}}, "geometry": {"type": "Point", "coordinates": [22.332059174215225, 0.034115625332214364]}}, {"type": "Feature", "properties": {"norad_id": 54026, "name": "GALAXY 33 (G-33)", "group": "intelsat", "lat": 0.017284224439199858, "lon": 14.35049898694141, "alt_km": 35790.45232603215, "timestamp": "2025-12-05T04:52:14.989657+00:00", "meta": {"OBJECT_NAME": "GALAXY 33 (G-33)", "OBJECT_ID": "2022-128A", "EPOCH": "2025-12-04T04:32:00.541824", "MEAN_MOTION": 1.00272957, "ECCENTRICITY": 0.0002014, "INCLINATION": 0.0134, "RA_OF_ASC_NODE": 359.762, "ARG_OF_PERICENTER": 250.375, "MEAN_ANOMALY": 118.1476, "EPHEMERIS_TYPE": 0, "CLASSIFICATION_TYPE": "U", "NORAD_CAT_ID": 54026, "ELEMENT_SET_NO": 999, "REV_AT_EPOCH": 1178, "BSTAR": 0, "MEAN_MOTION_DOT": 9.5e-07, "MEAN_MOTION_DDOT": 0}, "tle": {"line1": "1 54026U 22128A   25338.18889516  .00000095  00000+0  00000+0 0  9991", "line2": "2 54026   0.0134 359.7620 0002014 250.3750 118.1476  1.00272957 11786"}}, "geometry": {"type": "Point", "coordinates": [14.35049898694141, 0.017284224439199858]}}, {"type": "Feature", "properties": {"norad_id": 54027, "name": "GALAXY 34 (G-34)", "group": "intelsat", "lat": 0.03750689205548359, "lon": 18.37590362921276, "alt_km": 35790.555441803015, "timestamp": "2025-12-05T04:52:14.989668+00:00", "meta": {"OBJECT_NAME": "GALAXY 34 (G-34)", "OBJECT_ID": "2022-128B", "EPOCH": "2025-12-04T14:10:38.722944", "MEAN_MOTION": 1.00269584, "ECCENTRICITY": 0.0001285, "INCLINATION": 0.0223, "RA_OF_ASC_NODE": 328.1402, "ARG_OF_PERICENTER": 274.2387, "MEAN_ANOMALY": 275.0049, "EPHEMERIS_TYPE": 0, "CLASSIFICATION_TYPE": "U", "NORAD_CAT_ID": 54027, "ELEMENT_SET_NO": 999, "REV_AT_EPOCH": 1196, "BSTAR": 0, "MEAN_MOTION_DOT": 0, "MEAN_MOTION_DDOT": 0}, "tle": {"line1": "1 54027U 22128B   25338.59072596  .00000000  00000+0  00000+0 0  9995", "line2": "2 54027   0.0223 328.1402 0001285 274.2387 275.0049  1.00269584 11965"}}, "geometry": {"type": "Point", "coordinates": [18.37590362921276, 0.03750689205548359]}}, {"type": "Feature", "properties": {"norad_id": 54243, "name": "GALAXY 31 (G-31)", "group": "intelsat", "lat": 0.01260807096221426, "lon": 26.33036008763324, "alt_km": 35790.572727867286, "timestamp": "2025-12-05T04:52:14.989678+00:00", "meta": {"OBJECT_NAME": "GALAXY 31 (G-31)", "OBJECT_ID": "2022-153A", "EPOCH": "2025-12-04T14:02:38.764032", "MEAN_MOTION": 1.00270474, "ECCENTRICITY": 0.0002012, "INCLINATION": 0.0155, "RA_OF_ASC_NODE": 30.9903, "ARG_OF_PERICENTER": 236.2733, "MEAN_ANOMALY": 256.0574, "EPHEMERIS_TYPE": 0, "CLASSIFICATION_TYPE": "U", "NORAD_CAT_ID": 54243, "ELEMENT_SET_NO": 999, "REV_AT_EPOCH": 518, "BSTAR": 0, "MEAN_MOTION_DOT": 2.8e-07, "MEAN_MOTION_DDOT": 0}, "tle": {"line1": "1 54243U 22153A   25338.58517088  .00000028  00000+0  00000+0 0  9992", "line2": "2 54243   0.0155  30.9903 0002012 236.2733 256.0574  1.00270474  5184"}}, "geometry": {"type": "Point", "coordinates": [26.33036008763324, 0.01260807096221426]}}, {"type": "Feature", "properties": {"norad_id": 54244, "name": "GALAXY 32 (G-32)", "group": "intelsat", "lat": 0.036063643459117806, "lon": 56.35968828857675, "alt_km": 35790.31468199747, "timestamp": "2025-12-05T04:52:14.989688+00:00", "meta": {"OBJECT_NAME": "GALAXY 32 (G-32)", "OBJECT_ID": "2022-153B", "EPOCH": "2025-12-04T06:26:43.018944", "MEAN_MOTION": 1.00276972, "ECCENTRICITY": 0.0002645, "INCLINATION": 0.0105, "RA_OF_ASC_NODE": 335.682, "ARG_OF_PERICENTER": 320.5461, "MEAN_ANOMALY": 142.802, "EPHEMERIS_TYPE": 0, "CLASSIFICATION_TYPE": "U", "NORAD_CAT_ID": 54244, "ELEMENT_SET_NO": 999, "REV_AT_EPOCH": 1119, "BSTAR": 0, "MEAN_MOTION_DOT": -1.59e-06, "MEAN_MOTION_DDOT": 0}, "tle": {"line1": "1 54244U 22153B   25338.26855346 -.00000159  00000+0  00000+0 0  9996", "line2": "2 54244   0.0105 335.6820 0002645 320.5461 142.8020  1.00276972 11195"}}, "geometry": {"type": "Point", "coordinates": [56.35968828857675, 0.036063643459117806]}}, {"type": "Feature", "properties": {"norad_id": 54741, "name": "GALAXY 35 (G-35)", "group": "intelsat", "lat": 0.03495876689606397, "lon": 54.21112816177329, "alt_km": 35796.841856141684, "timestamp": "2025-12-05T04:52:14.989699+00:00", "meta": {"OBJECT_NAME": "GALAXY 35 (G-35)", "OBJECT_ID": "2022-170A", "EPOCH": "2025-12-04T13:16:59.656800", "MEAN_MOTION": 1.00270528, "ECCENTRICITY": 0.0002769, "INCLINATION": 0.0151, "RA_OF_ASC_NODE": 0.0134, "ARG_OF_PERICENTER": 262.0557, "MEAN_ANOMALY": 277.6941, "EPHEMERIS_TYPE": 0, "CLASSIFICATION_TYPE": "U", "NORAD_CAT_ID": 54741, "ELEMENT_SET_NO": 999, "REV_AT_EPOCH": 1094, "BSTAR": 0, "MEAN_MOTION_DOT": 0, "MEAN_MOTION_DDOT": 0}, "tle": {"line1": "1 54741U 22170A   25338.55346825  .00000000  00000+0  00000+0 0  9990", "line2": "2 54741   0.0151   0.0134 0002769 262.0557 277.6941  1.00270528 10944"}}, "geometry": {"type": "Point", "coordinates": [54.21112816177329, 0.03495876689606397]}}, {"type": "Feature", "properties": {"norad_id": 54742, "name": "GALAXY 36 (G-36)", "group": "intelsat", "lat": 0.026141962643412942, "lon": 58.31167278848452, "alt_km": 35788.80548830736, "timestamp": "2025-12-05T04:52:14.989709+00:00", "meta": {"OBJECT_NAME": "GALAXY 36 (G-36)", "OBJECT_ID": "2022-170B", "EPOCH": "2025-12-04T13:18:14.537952", "MEAN_MOTION": 1.00271016, "ECCENTRICITY": 6.02e-05, "INCLINATION": 0.0144, "RA_OF_ASC_NODE": 275.7548, "ARG_OF_PERICENTER": 336.826, "MEAN_ANOMALY": 291.6079, "EPHEMERIS_TYPE": 0, "CLASSIFICATION_TYPE": "U", "NORAD_CAT_ID": 54742, "ELEMENT_SET_NO": 999, "REV_AT_EPOCH": 1082, "BSTAR": 0, "MEAN_MOTION_DOT": -1.71e-06, "MEAN_MOTION_DDOT": 0}, "tle": {"line1": "1 54742U 22170B   25338.55433493 -.00000171  00000+0  00000+0 0  9999", "line2": "2 54742   0.0144 275.7548 0000602 336.8260 291.6079  1.00271016 10820"}}, "geometry": {"type": "Point", "coordinates": [58.31167278848452, 0.026141962643412942]}}, {"type": "Feature", "properties": {"norad_id": 57493, "name": "GALAXY 37 (G-37)", "group": "intelsat", "lat": 0.03273455704151963, "lon": 20.338356803337916, "alt_km": 35792.23900165352, "timestamp": "2025-12-05T04:52:14.989724+00:00", "meta": {"OBJECT_NAME": "GALAXY 37 (G-37)", "OBJECT_ID": "2023-112A", "EPOCH": "2025-12-04T14:10:38.722944", "MEAN_MOTION": 1.00269836, "ECCENTRICITY": 0.0002385, "INCLINATION": 0.012, "RA_OF_ASC_NODE": 308.4248, "ARG_OF_PERICENTER": 307.8921, "MEAN_ANOMALY": 263.0163, "EPHEMERIS_TYPE": 0, "CLASSIFICATION_TYPE": "U", "NORAD_CAT_ID": 57493, "ELEMENT_SET_NO": 999, "REV_AT_EPOCH": 859, "BSTAR": 0, "MEAN_MOTION_DOT": 6.3e-07, "MEAN_MOTION_DDOT": 0}, "tle": {"line1": "1 57493U 23112A   25338.59072596  .00000063  00000+0  00000+0 0  9998", "line2": "2 57493   0.0120 308.4248 0002385 307.8921 263.0163  1.00269836  8598"}}, "geometry": {"type": "Point", "coordinates": [20.338356803337916, 0.03273455704151963]}}]}